CCSDS_OMM_VERS = 2.0
CREATION_DATE  = 
ORIGINATOR     = 

OBJECT_NAME    = 2025-292G
OBJECT_ID      = 2025-292G
CENTER_NAME    = EARTH
REF_FRAME      = TEME
TIME_SYSTEM    = UTC
MEAN_ELEMENT_THEORY = SGP/SGP4

EPOCH          = 2025-12-16T22:17:15.601920
MEAN_MOTION    = 15.04934765
ECCENTRICITY   = .00140064
INCLINATION    = 97.6579
RA_OF_ASC_NODE = 63.4469
ARG_OF_PERICENTER = 264.3360
MEAN_ANOMALY   = 95.6269

EPHEMERIS_TYPE = 0
CLASSIFICATION_TYPE = U
NORAD_CAT_ID   = 66999
ELEMENT_SET_NO = 999
REV_AT_EPOCH   = 102
BSTAR          = .32604468E-3
MEAN_MOTION_DOT = .4566E-4
MEAN_MOTION_DDOT = 0

CCSDS_OMM_VERS = 2.0
CREATION_DATE  = 
ORIGINATOR     = 

OBJECT_NAME    = 2025-292H
OBJECT_ID      = 2025-292H
CENTER_NAME    = EARTH
REF_FRAME      = TEME
TIME_SYSTEM    = UTC
MEAN_ELEMENT_THEORY = SGP/SGP4

EPOCH          = 2025-12-16T11:07:02.569152
MEAN_MOTION    = 15.04930133
ECCENTRICITY   = .00139568
INCLINATION    = 97.6580
RA_OF_ASC_NODE = 62.9852
ARG_OF_PERICENTER = 266.0810
MEAN_ANOMALY   = 93.8820

EPHEMERIS_TYPE = 0
CLASSIFICATION_TYPE = U
NORAD_CAT_ID   = 67000
ELEMENT_SET_NO = 999
REV_AT_EPOCH   = 82
BSTAR          = .33603551E-3
MEAN_MOTION_DOT = .4707E-4
MEAN_MOTION_DDOT = 0

CCSDS_OMM_VERS = 2.0
CREATION_DATE  = 
ORIGINATOR     = 

OBJECT_NAME    = 2025-292J
OBJECT_ID      = 2025-292J
CENTER_NAME    = EARTH
REF_FRAME      = TEME
TIME_SYSTEM    = UTC
MEAN_ELEMENT_THEORY = SGP/SGP4

EPOCH          = 2025-12-16T22:21:02.425248
MEAN_MOTION    = 15.04349032
ECCENTRICITY   = .00142288
INCLINATION    = 97.6570
RA_OF_ASC_NODE = 63.4427
ARG_OF_PERICENTER = 252.9782
MEAN_ANOMALY   = 106.9885

EPHEMERIS_TYPE = 0
CLASSIFICATION_TYPE = U
NORAD_CAT_ID   = 67001
ELEMENT_SET_NO = 999
REV_AT_EPOCH   = 102
BSTAR          = .33183716E-3
MEAN_MOTION_DOT = .4576E-4
MEAN_MOTION_DDOT = 0

CCSDS_OMM_VERS = 2.0
CREATION_DATE  = 
ORIGINATOR     = 

OBJECT_NAME    = ZK-1A R/B
OBJECT_ID      = 2025-292K
CENTER_NAME    = EARTH
REF_FRAME      = TEME
TIME_SYSTEM    = UTC
MEAN_ELEMENT_THEORY = SGP/SGP4

EPOCH          = 2025-12-16T23:16:33.769920
MEAN_MOTION    = 15.55956857
ECCENTRICITY   = .02151858
INCLINATION    = 97.7239
RA_OF_ASC_NODE = 64.0908
ARG_OF_PERICENTER = 350.4268
MEAN_ANOMALY   = 9.2912

EPHEMERIS_TYPE = 0
CLASSIFICATION_TYPE = U
NORAD_CAT_ID   = 67002
ELEMENT_SET_NO = 999
REV_AT_EPOCH   = 105
BSTAR          = .73353938E-3
MEAN_MOTION_DOT = .151292E-2
MEAN_MOTION_DDOT = .8155085E-5

CCSDS_OMM_VERS = 2.0
CREATION_DATE  = 
ORIGINATOR     = 

OBJECT_NAME    = HULIANWANG DIGUI 16A
OBJECT_ID      = 2025-295A
CENTER_NAME    = EARTH
REF_FRAME      = TEME
TIME_SYSTEM    = UTC
MEAN_ELEMENT_THEORY = SGP/SGP4

EPOCH          = 2025-12-12T05:06:27.347328
MEAN_MOTION    = 14.25879966
ECCENTRICITY   = .00136284
INCLINATION    = 50.0035
RA_OF_ASC_NODE = 14.4753
ARG_OF_PERICENTER = 247.7813
MEAN_ANOMALY   = 112.1656

EPHEMERIS_TYPE = 0
CLASSIFICATION_TYPE = U
NORAD_CAT_ID   = 67059
ELEMENT_SET_NO = 999
REV_AT_EPOCH   = 4
BSTAR          = .3434713E-5
MEAN_MOTION_DOT = -.152E-5
MEAN_MOTION_DDOT = 0

CCSDS_OMM_VERS = 2.0
CREATION_DATE  = 
ORIGINATOR     = 

OBJECT_NAME    = HULIANWANG DIGUI 16B
OBJECT_ID      = 2025-295B
CENTER_NAME    = EARTH
REF_FRAME      = TEME
TIME_SYSTEM    = UTC
MEAN_ELEMENT_THEORY = SGP/SGP4

EPOCH          = 2025-12-12T05:06:25.468992
MEAN_MOTION    = 14.26022254
ECCENTRICITY   = .0013423
INCLINATION    = 50.0012
RA_OF_ASC_NODE = 14.4776
ARG_OF_PERICENTER = 244.6732
MEAN_ANOMALY   = 115.2792

EPHEMERIS_TYPE = 0
CLASSIFICATION_TYPE = U
NORAD_CAT_ID   = 67060
ELEMENT_SET_NO = 999
REV_AT_EPOCH   = 4
BSTAR          = .4398892E-5
MEAN_MOTION_DOT = -.15E-5
MEAN_MOTION_DDOT = 0

CCSDS_OMM_VERS = 2.0
CREATION_DATE  = 
ORIGINATOR     = 

OBJECT_NAME    = HULIANWANG DIGUI 16D
OBJECT_ID      = 2025-295D
CENTER_NAME    = EARTH
REF_FRAME      = TEME
TIME_SYSTEM    = UTC
MEAN_ELEMENT_THEORY = SGP/SGP4

EPOCH          = 2025-12-12T05:06:24.477120
MEAN_MOTION    = 14.25916921
ECCENTRICITY   = .00124974
INCLINATION    = 50.0052
RA_OF_ASC_NODE = 14.4731
ARG_OF_PERICENTER = 251.2247
MEAN_ANOMALY   = 108.7311

EPHEMERIS_TYPE = 0
CLASSIFICATION_TYPE = U
NORAD_CAT_ID   = 67062
ELEMENT_SET_NO = 999
REV_AT_EPOCH   = 4
BSTAR          = .3753899E-5
MEAN_MOTION_DOT = -.151E-5
MEAN_MOTION_DDOT = 0

CCSDS_OMM_VERS = 2.0
CREATION_DATE  = 
ORIGINATOR     = 

OBJECT_NAME    = HULIANWANG DIGUI 16F
OBJECT_ID      = 2025-295F
CENTER_NAME    = EARTH
REF_FRAME      = TEME
TIME_SYSTEM    = UTC
MEAN_ELEMENT_THEORY = SGP/SGP4

EPOCH          = 2025-12-12T05:06:22.414752
MEAN_MOTION    = 14.26957674
ECCENTRICITY   = .00149026
INCLINATION    = 50.0027
RA_OF_ASC_NODE = 14.4596
ARG_OF_PERICENTER = 247.8107
MEAN_ANOMALY   = 112.1227

EPHEMERIS_TYPE = 0
CLASSIFICATION_TYPE = U
NORAD_CAT_ID   = 67064
ELEMENT_SET_NO = 999
REV_AT_EPOCH   = 4
BSTAR          = .26251967E-4
MEAN_MOTION_DOT = -.96E-6
MEAN_MOTION_DDOT = 0

CCSDS_OMM_VERS = 2.0
CREATION_DATE  = 
ORIGINATOR     = 

OBJECT_NAME    = HULIANWANG DIGUI 16H
OBJECT_ID      = 2025-295H
CENTER_NAME    = EARTH
REF_FRAME      = TEME
TIME_SYSTEM    = UTC
MEAN_ELEMENT_THEORY = SGP/SGP4

EPOCH          = 2025-12-12T05:06:20.088000
MEAN_MOTION    = 14.26429655
ECCENTRICITY   = .00114905
INCLINATION    = 50.0029
RA_OF_ASC_NODE = 14.4606
ARG_OF_PERICENTER = 248.6611
MEAN_ANOMALY   = 111.3077

EPHEMERIS_TYPE = 0
CLASSIFICATION_TYPE = U
NORAD_CAT_ID   = 67066
ELEMENT_SET_NO = 999
REV_AT_EPOCH   = 4
BSTAR          = .24353642E-4
MEAN_MOTION_DOT = -.101E-5
MEAN_MOTION_DDOT = 0

CCSDS_OMM_VERS = 2.0
CREATION_DATE  = 
ORIGINATOR     = 

OBJECT_NAME    = HULIANWANG DIGUI 16J
OBJECT_ID      = 2025-295J
CENTER_NAME    = EARTH
REF_FRAME      = TEME
TIME_SYSTEM    = UTC
MEAN_ELEMENT_THEORY = SGP/SGP4

EPOCH          = 2025-12-12T05:06:18.555264
MEAN_MOTION    = 14.26361638
ECCENTRICITY   = .00104901
INCLINATION    = 50.0044
RA_OF_ASC_NODE = 14.4694
ARG_OF_PERICENTER = 253.0387
MEAN_ANOMALY   = 106.9378

EPHEMERIS_TYPE = 0
CLASSIFICATION_TYPE = U
NORAD_CAT_ID   = 67067
ELEMENT_SET_NO = 999
REV_AT_EPOCH   = 4
BSTAR          = .6475965E-5
MEAN_MOTION_DOT = -.145E-5
MEAN_MOTION_DDOT = 0

CCSDS_OMM_VERS = 2.0
CREATION_DATE  = 
ORIGINATOR     = 

OBJECT_NAME    = XIWANG-5 02
OBJECT_ID      = 2025-296A
CENTER_NAME    = EARTH
REF_FRAME      = TEME
TIME_SYSTEM    = UTC
MEAN_ELEMENT_THEORY = SGP/SGP4

EPOCH          = 2025-12-16T17:14:44.022048
MEAN_MOTION    = 15.16917082
ECCENTRICITY   = .00142168
INCLINATION    = 41.3519
RA_OF_ASC_NODE = 78.8727
ARG_OF_PERICENTER = 50.6205
MEAN_ANOMALY   = 309.5873

EPHEMERIS_TYPE = 0
CLASSIFICATION_TYPE = U
NORAD_CAT_ID   = 67069
ELEMENT_SET_NO = 999
REV_AT_EPOCH   = 56
BSTAR          = .52177685E-3
MEAN_MOTION_DOT = .10321E-3
MEAN_MOTION_DDOT = 0

CCSDS_OMM_VERS = 2.0
CREATION_DATE  = 
ORIGINATOR     = 

OBJECT_NAME    = DEAR-5
OBJECT_ID      = 2025-296B
CENTER_NAME    = EARTH
REF_FRAME      = TEME
TIME_SYSTEM    = UTC
MEAN_ELEMENT_THEORY = SGP/SGP4

EPOCH          = 2025-12-16T17:13:51.567744
MEAN_MOTION    = 15.16864031
ECCENTRICITY   = .00164401
INCLINATION    = 41.3568
RA_OF_ASC_NODE = 78.8720
ARG_OF_PERICENTER = 53.4577
MEAN_ANOMALY   = 306.7756

EPHEMERIS_TYPE = 0
CLASSIFICATION_TYPE = U
NORAD_CAT_ID   = 67070
ELEMENT_SET_NO = 999
REV_AT_EPOCH   = 55
BSTAR          = .7549016E-4
MEAN_MOTION_DOT = .1312E-4
MEAN_MOTION_DDOT = 0

