2025-292G               
1 66999U 25292G   25350.92865280  .00004566  00000+0  32604-3 0  9992
2 66999  97.6579  63.4469 0014006 264.3360  95.6269 15.04934765  1025
2025-292H               
1 67000U 25292H   25350.46322418  .00004707  00000+0  33604-3 0  9994
2 67000  97.6580  62.9852 0013956 266.0810  93.8820 15.04930133   828
2025-292J               
1 67001U 25292J   25350.93127807  .00004576  00000+0  33184-3 0  9999
2 67001  97.6570  63.4427 0014228 252.9782 106.9885 15.04349032  1029
ZK-1A R/B               
1 67002U 25292K   25350.96983530  .00151292  81551-5  73354-3 0  9993
2 67002  97.7239  64.0908 0215185 350.4268   9.2912 15.55956857  1056
HULIANWANG DIGUI 16A    
1 67059U 25295A   25346.21281652 -.00000152  00000+0  34347-5 0  9991
2 67059  50.0035  14.4753 0013628 247.7813 112.1656 14.25879966    41
HULIANWANG DIGUI 16B    
1 67060U 25295B   25346.21279478 -.00000150  00000+0  43989-5 0  9996
2 67060  50.0012  14.4776 0013423 244.6732 115.2792 14.26022254    48
HULIANWANG DIGUI 16D    
1 67062U 25295D   25346.21278330 -.00000151  00000+0  37539-5 0  9999
2 67062  50.0052  14.4731 0012497 251.2247 108.7311 14.25916921    46
HULIANWANG DIGUI 16F    
1 67064U 25295F   25346.21275943 -.00000096  00000+0  26252-4 0  9995
2 67064  50.0027  14.4596 0014902 247.8107 112.1227 14.26957674    44
HULIANWANG DIGUI 16H    
1 67066U 25295H   25346.21273250 -.00000101  00000+0  24354-4 0  9994
2 67066  50.0029  14.4606 0011490 248.6611 111.3077 14.26429655    45
HULIANWANG DIGUI 16J    
1 67067U 25295J   25346.21271476 -.00000145  00000+0  64760-5 0  9997
2 67067  50.0044  14.4694 0010490 253.0387 106.9378 14.26361638    49
XIWANG-5 02             
1 67069U 25296A   25350.71856507  .00010321  00000+0  52178-3 0  9998
2 67069  41.3519  78.8727 0014216  50.6205 309.5873 15.16917082   560
DEAR-5                  
1 67070U 25296B   25350.71795796  .00001312  00000+0  75490-4 0  9995
2 67070  41.3568  78.8720 0016440  53.4577 306.7756 15.16864031   556
